[
    {
        "Altitude(m)": 714835.0517779815,
        "Argument of Periapsis(deg)": 0.005695060593313534,
        "Eccentricity": 0.0,
        "Inclination(deg)": 45.0,
        "Latitude(deg)": -37.79225073381474,
        "Longitude(deg)": -115.84233572532611,
        "Mean Anomaly(deg)": 300.31210832374046,
        "RAAN(deg)": 34.994624029270895,
        "Satellite Name": "Constellation 1 172",
        "Satellite Number": 172,
        "Semi-Major Axis(m)": 7083131.272910544,
        "Time(s)": 95
    },
    {
        "Altitude(m)": 714823.7807260974,
        "Argument of Periapsis(deg)": 0.00575500859955894,
        "Eccentricity": 0.0,
        "Inclination(deg)": 45.0,
        "Latitude(deg)": -37.76488953102346,
        "Longitude(deg)": -115.77817415923523,
        "Mean Anomaly(deg)": 300.37280946399034,
        "RAAN(deg)": 34.99456744010533,
        "Satellite Name": "Constellation 1 172",
        "Satellite Number": 172,
        "Semi-Major Axis(m)": 7083131.272910544,
        "Time(s)": 96
    },
    {
        "Altitude(m)": 714812.4944572747,
        "Argument of Periapsis(deg)": 0.005814956605804345,
        "Eccentricity": 0.0,
        "Inclination(deg)": 45.0,
        "Latitude(deg)": -37.73748864835711,
        "Longitude(deg)": -115.71406260016273,
        "Mean Anomaly(deg)": 300.4335106042402,
        "RAAN(deg)": 34.994510850939754,
        "Satellite Name": "Constellation 1 172",
        "Satellite Number": 172,
        "Semi-Major Axis(m)": 7083131.272910544,
        "Time(s)": 97
    },
    {
        "Altitude(m)": 714801.1930123994,
        "Argument of Periapsis(deg)": 0.00587490461204975,
        "Eccentricity": 0.0,
        "Inclination(deg)": 45.0,
        "Latitude(deg)": -37.710048153022385,
        "Longitude(deg)": -115.65000120204212,
        "Mean Anomaly(deg)": 300.4942117444901,
        "RAAN(deg)": 34.99445426177419,
        "Satellite Name": "Constellation 1 172",
        "Satellite Number": 172,
        "Semi-Major Axis(m)": 7083131.272910544,
        "Time(s)": 98
    },
    {
        "Altitude(m)": 714789.8764324085,
        "Argument of Periapsis(deg)": 0.005934852618295156,
        "Eccentricity": 0.0,
        "Inclination(deg)": 45.0,
        "Latitude(deg)": -37.68256811218918,
        "Longitude(deg)": -115.58598995038477,
        "Mean Anomaly(deg)": 300.55491288474,
        "RAAN(deg)": 34.99439767260861,
        "Satellite Name": "Constellation 1 172",
        "Satellite Number": 172,
        "Semi-Major Axis(m)": 7083131.272910544,
        "Time(s)": 99
    },
    {
        "Altitude(m)": 714778.5447582895,
        "Argument of Periapsis(deg)": 0.005994800624540561,
        "Eccentricity": 0.0,
        "Inclination(deg)": 45.0,
        "Latitude(deg)": -37.65504859298999,
        "Longitude(deg)": -115.52202883037926,
        "Mean Anomaly(deg)": 300.61561402498995,
        "RAAN(deg)": 34.994341083443054,
        "Satellite Name": "Constellation 1 172",
        "Satellite Number": 172,
        "Semi-Major Axis(m)": 7083131.272910544,
        "Time(s)": 100
    },
    {
        "Altitude(m)": 714767.1980310788,
        "Argument of Periapsis(deg)": 0.006054748630785968,
        "Eccentricity": 0.0,
        "Inclination(deg)": 45.0,
        "Latitude(deg)": -37.62748966251954,
        "Longitude(deg)": -115.45811782689232,
        "Mean Anomaly(deg)": 300.6763151652398,
        "RAAN(deg)": 34.99428449427748,
        "Satellite Name": "Constellation 1 172",
        "Satellite Number": 172,
        "Semi-Major Axis(m)": 7083131.272910544,
        "Time(s)": 101
    },
    {
        "Altitude(m)": 714755.8362918649,
        "Argument of Periapsis(deg)": 0.006114696637031373,
        "Eccentricity": 0.0,
        "Inclination(deg)": 45.0,
        "Latitude(deg)": -37.599891387834376,
        "Longitude(deg)": -115.39425692447045,
        "Mean Anomaly(deg)": 300.7370163054897,
        "RAAN(deg)": 34.994227905111906,
        "Satellite Name": "Constellation 1 172",
        "Satellite Number": 172,
        "Semi-Major Axis(m)": 7083131.272910544,
        "Time(s)": 102
    },
    {
        "Altitude(m)": 714744.4595817871,
        "Argument of Periapsis(deg)": 0.006174644643276778,
        "Eccentricity": 0.0,
        "Inclination(deg)": 45.0,
        "Latitude(deg)": -37.57225383595259,
        "Longitude(deg)": -115.33044610734136,
        "Mean Anomaly(deg)": 300.79771744573964,
        "RAAN(deg)": 34.99417131594633,
        "Satellite Name": "Constellation 1 172",
        "Satellite Number": 172,
        "Semi-Major Axis(m)": 7083131.272910544,
        "Time(s)": 103
    },
    {
        "Altitude(m)": 714733.0679420378,
        "Argument of Periapsis(deg)": 0.006234592649522184,
        "Eccentricity": 0.0,
        "Inclination(deg)": 45.0,
        "Latitude(deg)": -37.544577073853105,
        "Longitude(deg)": -115.26668552751248,
        "Mean Anomaly(deg)": 300.85841858598957,
        "RAAN(deg)": 34.99411472678077,
        "Satellite Name": "Constellation 1 172",
        "Satellite Number": 172,
        "Semi-Major Axis(m)": 7083131.272910544,
        "Time(s)": 104
    },
    {
        "Altitude(m)": 714721.6614138585,
        "Argument of Periapsis(deg)": 0.00629454065576759,
        "Eccentricity": 0.0,
        "Inclination(deg)": 45.0,
        "Latitude(deg)": -37.51686116847617,
        "Longitude(deg)": -115.20297483238372,
        "Mean Anomaly(deg)": 300.91911972623944,
        "RAAN(deg)": 34.9940581376152,
        "Satellite Name": "Constellation 1 172",
        "Satellite Number": 172,
        "Semi-Major Axis(m)": 7083131.272910544,
        "Time(s)": 105
    },
    {
        "Altitude(m)": 714710.2400385384,
        "Argument of Periapsis(deg)": 0.006354488662012995,
        "Eccentricity": 0.0,
        "Inclination(deg)": 45.0,
        "Latitude(deg)": -37.48910618672182,
        "Longitude(deg)": -115.13931417333191,
        "Mean Anomaly(deg)": 300.9798208664893,
        "RAAN(deg)": 34.99400154844963,
        "Satellite Name": "Constellation 1 172",
        "Satellite Number": 172,
        "Semi-Major Axis(m)": 7083131.272910544,
        "Time(s)": 106
    },
    {
        "Altitude(m)": 714698.8038574157,
        "Argument of Periapsis(deg)": 0.006414436668258401,
        "Eccentricity": 0.0,
        "Inclination(deg)": 45.0,
        "Latitude(deg)": -37.46131219545025,
        "Longitude(deg)": -115.07570353332355,
        "Mean Anomaly(deg)": 301.0405220067392,
        "RAAN(deg)": 34.993944959284065,
        "Satellite Name": "Constellation 1 172",
        "Satellite Number": 172,
        "Semi-Major Axis(m)": 7083131.272910544,
        "Time(s)": 107
    },
    {
        "Altitude(m)": 714687.3529118825,
        "Argument of Periapsis(deg)": 0.0064743846745038075,
        "Eccentricity": 0.0,
        "Inclination(deg)": 45.0,
        "Latitude(deg)": -37.43347926148128,
        "Longitude(deg)": -115.0121428950133,
        "Mean Anomaly(deg)": 301.1012231469891,
        "RAAN(deg)": 34.99388837011849,
        "Satellite Name": "Constellation 1 172",
        "Satellite Number": 172,
        "Semi-Major Axis(m)": 7083131.272910544,
        "Time(s)": 108
    },
    {
        "Altitude(m)": 714675.8872433838,
        "Argument of Periapsis(deg)": 0.0065343326807492125,
        "Eccentricity": 0.0,
        "Inclination(deg)": 45.0,
        "Latitude(deg)": -37.405607451593994,
        "Longitude(deg)": -114.9486322407456,
        "Mean Anomaly(deg)": 301.161924287239,
        "RAAN(deg)": 34.99383178095292,
        "Satellite Name": "Constellation 1 172",
        "Satellite Number": 172,
        "Semi-Major Axis(m)": 7083131.272910544,
        "Time(s)": 109
    },
    {
        "Altitude(m)": 714664.4068934034,
        "Argument of Periapsis(deg)": 0.0065942806869946176,
        "Eccentricity": 0.0,
        "Inclination(deg)": 45.0,
        "Latitude(deg)": -37.37769683252648,
        "Longitude(deg)": -114.8851715525561,
        "Mean Anomaly(deg)": 301.2226254274889,
        "RAAN(deg)": 34.99377519178736,
        "Satellite Name": "Constellation 1 172",
        "Satellite Number": 172,
        "Semi-Major Axis(m)": 7083131.272910544,
        "Time(s)": 110
    },
    {
        "Altitude(m)": 714652.9119034855,
        "Argument of Periapsis(deg)": 0.006654228693240024,
        "Eccentricity": 0.0,
        "Inclination(deg)": 45.0,
        "Latitude(deg)": -37.349747470975046,
        "Longitude(deg)": -114.82176098026973,
        "Mean Anomaly(deg)": 301.2833265677388,
        "RAAN(deg)": 34.99371860262178,
        "Satellite Name": "Constellation 1 172",
        "Satellite Number": 172,
        "Semi-Major Axis(m)": 7083131.272910544,
        "Time(s)": 111
    },
    {
        "Altitude(m)": 714641.4023152135,
        "Argument of Periapsis(deg)": 0.006714176699485429,
        "Eccentricity": 0.0,
        "Inclination(deg)": 45.0,
        "Latitude(deg)": -37.321759433594664,
        "Longitude(deg)": -114.75840016911383,
        "Mean Anomaly(deg)": 301.34402770798874,
        "RAAN(deg)": 34.993662013456216,
        "Satellite Name": "Constellation 1 172",
        "Satellite Number": 172,
        "Semi-Major Axis(m)": 7083131.272910544,
        "Time(s)": 112
    },
    {
        "Altitude(m)": 714629.8781702275,
        "Argument of Periapsis(deg)": 0.006774124705730835,
        "Eccentricity": 0.0,
        "Inclination(deg)": 45.0,
        "Latitude(deg)": -37.293732786997865,
        "Longitude(deg)": -114.6950892683029,
        "Mean Anomaly(deg)": 301.4047288482386,
        "RAAN(deg)": 34.99360542429064,
        "Satellite Name": "Constellation 1 172",
        "Satellite Number": 172,
        "Semi-Major Axis(m)": 7083131.272910544,
        "Time(s)": 113
    }
]